{
    "links": {
        "self": "http://www.neowsapp.com/rest/v1/neo/3607079?api_key=iIulBulltgU6a56xZRHN4H3l9WmuAYTsLGpBGhQ2"
    },
    "id": "3607079",
    "neo_reference_id": "3607079",
    "name": "(2012 OU5)",
    "designation": "2012 OU5",
    "nasa_jpl_url": "http://ssd.jpl.nasa.gov/sbdb.cgi?sstr=3607079",
    "absolute_magnitude_h": 21.6,
    "estimated_diameter": {
        "kilometers": {
            "estimated_diameter_min": 0.1272198785,
            "estimated_diameter_max": 0.2844722965
        },
        "meters": {
            "estimated_diameter_min": 127.2198785394,
            "estimated_diameter_max": 284.4722965033
        },
        "miles": {
            "estimated_diameter_min": 0.0790507431,
            "estimated_diameter_max": 0.1767628354
        },
        "feet": {
            "estimated_diameter_min": 417.3880663071,
            "estimated_diameter_max": 933.3080892598
        }
    },
    "is_potentially_hazardous_asteroid": false,
    "close_approach_data": [
        {
            "close_approach_date": "1944-08-13",
            "close_approach_date_full": "1944-Aug-13 19:05",
            "epoch_date_close_approach": -801032100000,
            "relative_velocity": {
                "kilometers_per_second": "4.7877062096",
                "kilometers_per_hour": "17235.7423547274",
                "miles_per_hour": "10709.6200203583"
            },
            "miss_distance": {
                "astronomical": "0.2782123773",
                "lunar": "108.2246147697",
                "kilometers": "41619979.051716351",
                "miles": "25861455.7710976038"
            },
            "orbiting_body": "Earth"
        },
        {
            "close_approach_date": "1978-08-13",
            "close_approach_date_full": "1978-Aug-13 14:24",
            "epoch_date_close_approach": 271866240000,
            "relative_velocity": {
                "kilometers_per_second": "4.7816884642",
                "kilometers_per_hour": "17214.0784711044",
                "miles_per_hour": "10696.1589255593"
            },
            "miss_distance": {
                "astronomical": "0.2708721226",
                "lunar": "105.3692556914",
                "kilometers": "40521892.583338862",
                "miles": "25179136.4792138156"
            },
            "orbiting_body": "Earth"
        },
        {
            "close_approach_date": "2012-08-09",
            "close_approach_date_full": "2012-Aug-09 15:26",
            "epoch_date_close_approach": 1344525960000,
            "relative_velocity": {
                "kilometers_per_second": "4.7020079009",
                "kilometers_per_hour": "16927.2284430927",
                "miles_per_hour": "10517.9214734317"
            },
            "miss_distance": {
                "astronomical": "0.2612533798",
                "lunar": "101.6275647422",
                "kilometers": "39082949.148381026",
                "miles": "24285018.4895331188"
            },
            "orbiting_body": "Earth"
        },
        {
            "close_approach_date": "2028-03-10",
            "close_approach_date_full": "2028-Mar-10 09:37",
            "epoch_date_close_approach": 1836293820000,
            "relative_velocity": {
                "kilometers_per_second": "6.9682968203",
                "kilometers_per_hour": "25085.8685531442",
                "miles_per_hour": "15587.3831573689"
            },
            "miss_distance": {
                "astronomical": "0.0987434977",
                "lunar": "38.4112206053",
                "kilometers": "14771816.932269899",
                "miles": "9178781.4159626462"
            },
            "orbiting_body": "Mars"
        },
        {
            "close_approach_date": "2046-08-09",
            "close_approach_date_full": "2046-Aug-09 04:37",
            "epoch_date_close_approach": 2417402220000,
            "relative_velocity": {
                "kilometers_per_second": "4.7504223947",
                "kilometers_per_hour": "17101.5206210466",
                "miles_per_hour": "10626.2198547831"
            },
            "miss_distance": {
                "astronomical": "0.2585203534",
                "lunar": "100.5644174726",
                "kilometers": "38674094.220287258",
                "miles": "24030967.8177018404"
            },
            "orbiting_body": "Earth"
        }
    ],
    "orbital_data": {
        "orbit_id": "17",
        "orbit_determination_date": "2020-07-09 06:10:01",
        "first_observation_date": "2012-07-28",
        "last_observation_date": "2012-09-23",
        "data_arc_in_days": 57,
        "observations_used": 65,
        "orbit_uncertainty": "6",
        "minimum_orbit_intersection": ".258462",
        "jupiter_tisserand_invariant": "3.610",
        "epoch_osculation": "2459000.5",
        "eccentricity": ".4008107315117119",
        "semi_major_axis": "2.122042873986288",
        "inclination": "8.219940292768266",
        "ascending_node_longitude": "136.6413516816981",
        "orbital_period": "1129.09285238157",
        "perihelion_distance": "1.271505317364628",
        "perihelion_argument": "182.4332676087339",
        "aphelion_distance": "2.972580430607948",
        "perihelion_time": "2459538.712884893700",
        "mean_anomaly": "188.3961871222146",
        "mean_motion": ".3188400309510951",
        "equinox": "J2000",
        "orbit_class": {
            "orbit_class_type": "AMO",
            "orbit_class_description": "Near-Earth asteroid orbits similar to that of 1221 Amor",
            "orbit_class_range": "1.017 AU < q (perihelion) < 1.3 AU"
        }
    },
    "is_sentry_object": false
}